OPS 6582 (TRANSIT 5B-5) 
1 00965U 64083D   22078.89526588  .00000063  00000+0  75250-4 0  9992
2 00965  90.0298 195.1589 0042592 129.4007 349.0352 13.56771571833376
OSCAR 7 (AO-7)          
1 07530U 74089B   22079.19130747 -.00000048  00000+0 -15427-4 0  9991
2 07530 101.8966  58.8077 0012011 211.9235 159.2124 12.53653539166527
UOSAT 2 (UO-11)         
1 14781U 84021B   22078.88358243  .00000574  00000+0  75921-4 0  9999
2 14781  97.6128  70.4369 0006918 253.5312 106.5142 14.83494003 26766
NOAA 9                  
1 15427U 84123A   22078.93698448  .00000046  00000+0  46540-4 0  9999
2 15427  99.0356  49.9630 0015737  60.8866   4.4698 14.16175033923940
LUSAT (LO-19)           
1 20442U 90005G   22078.86971451  .00000063  00000+0  39792-4 0  9998
2 20442  98.7834  42.4156 0012840  73.3843 286.8749 14.33031024680276
ITAMSAT (IO-26)         
1 22826U 93061D   22078.79847220  .00000043  00000+0  34490-4 0  9997
2 22826  98.8923 107.7796 0008032 303.3784  56.6628 14.30493862485593
RADIO ROSTO (RS-15)     
1 23439U 94085A   22078.90857789 -.00000037  00000+0  15882-3 0  9996
2 23439  64.8145 290.4508 0167026 287.9446  70.3334 11.27571051121397
JAS-2 (FO-29)           
1 24278U 96046B   22078.88862848 -.00000045  00000+0 -11219-4 0  9997
2 24278  98.5284 114.8542 0350786 155.5368 206.2878 13.53111613263490
NOAA 15                 
1 25338U 98030A   22079.17604778  .00000069  00000+0  47027-4 0  9999
2 25338  98.6552 109.8350 0010244 191.8521 168.2420 14.26098949240542
TECHSAT 1B (GO-32)      
1 25397U 98043D   22078.82585505  .00000023  00000+0  29912-4 0  9998
2 25397  98.8078  29.1069 0001808  43.0167 317.1152 14.23737396230676
ISS (ZARYA)             
1 25544U 98067A   22079.41803262  .00003330  00000+0  67508-4 0  9994
2 25544  51.6433  56.2292 0004143 292.6640 204.6271 15.49469238331416
ORSTED                  
1 25635U 99008B   22078.68189016  .00000224  00000+0  59935-4 0  9997
2 25635  96.4741 324.5378 0139978 107.6101 254.0441 14.48404423217283
PHASE 3D (AO-40)        
1 26609U 00072B   22078.60525077 -.00000007  00000+0  00000+0 0  9999
2 26609   7.7172 286.5078 7980628 346.8722   0.9469  1.25588578 98168
PCSAT (NO-44)           
1 26931U 01043C   22078.83101675  .00000029  00000+0  42918-4 0  9997
2 26931  67.0502 289.7225 0007604 276.0437  83.9797 14.30671789 68580
SAUDISAT 1C (SO-50)     
1 27607U 02058C   22078.75323346  .00000414  00000+0  78199-4 0  9995
2 27607  64.5545 216.3575 0072405 312.2881  47.2097 14.75956967 35135
CUTE-1 (CO-55)          
1 27844U 03031E   22078.88092601  .00000162  00000+0  92466-4 0  9994
2 27844  98.6817  87.9105 0009937   8.4357 351.6986 14.22396892971136
CUBESAT XI-IV (CO-57)   
1 27848U 03031J   22078.74588807  .00000137  00000+0  81627-4 0  9990
2 27848  98.6866  88.3138 0010074  22.5589 337.6030 14.21961403970939
MOZHAYETS 4 (RS-22)     
1 27939U 03042A   22079.06360253  .00000580  00000+0  11170-3 0  9999
2 27939  98.1748 219.8898 0014044 127.1182 233.1268 14.67185900987931
INMARSAT 4-F1           
1 28628U 05009A   22079.00881769 -.00000258  00000+0  00000+0 0  9993
2 28628   3.5480  34.0977 0003078 335.3616 314.7258  1.00273724 62120
NOAA 18                 
1 28654U 05018A   22079.17957064  .00000150  00000+0  10529-3 0  9993
2 28654  98.9572 149.6604 0013763 220.3406 139.6746 14.12700852867461
CUBESAT XI-V            
1 28895U 05043F   22078.86301681  .00000619  00000+0  12646-3 0  9993
2 28895  98.0908 211.7105 0017748  65.7780 294.5275 14.64145126874305
METOP-A                 
1 29499U 06044A   22078.92957177  .00000543  00000+0  81717-4 0  9992
2 29499  98.4633 120.6534 0197418 288.7385  55.1053 14.66991256797540
CARTOSAT-2 (IRS-P7)     
1 29710U 07001B   22078.86830731  .00008808  00000+0  23783-3 0  9991
2 29710  97.8612 179.4456 0160793  11.2136 349.2615 15.25927095822568
FALCONSAT-3             
1 30776U 07006E   22078.54805703  .00018935  00000+0  36541-3 0  9994
2 30776  35.4322 126.3639 0002803 235.8186 124.2278 15.46922186835624
CAPE-1                  
1 31130U 07012P   22078.82453311  .00000448  00000+0  10479-3 0  9993
2 31130  98.2621  20.0706 0094671 210.4059 149.1629 14.56917498792049
CARTOSAT-2A             
1 32783U 08021A   22079.09482159  .00000389  00000+0  60144-4 0  9990
2 32783  97.9768 140.1807 0014260  97.2319 263.0504 14.78658533749815
CUTE-1.7+APD II (CO-65) 
1 32785U 08021C   22078.87544747  .00001340  00000+0  14733-3 0  9999
2 32785  97.6482  52.6388 0013106 163.8958 196.2679 14.89174477753159
COMPASS-1               
1 32787U 08021E   22078.91977395  .00002592  00000+0  24173-3 0  9994
2 32787  97.5568  64.0679 0014004  86.7820 273.5003 14.94988156754675
AAUSAT-II               
1 32788U 08021F   22078.87198252  .00002427  00000+0  21785-3 0  9990
2 32788  97.5289  67.4457 0013149  67.3356 292.9255 14.96561294755032
DELFI-C3 (DO-64)        
1 32789U 08021G   22078.64641504  .00006175  00000+0  36903-3 0  9991
2 32789  97.3489 108.3027 0009225 273.3330  86.6845 15.11392585758356
SEEDS II (CO-66)        
1 32791U 08021J   22078.93309043  .00001757  00000+0  17810-3 0  9992
2 32791  97.6038  58.2919 0014294 124.5022 235.7550 14.92057142753846
YUBILEINY (RS-30)       
1 32953U 08025A   22079.04299939  .00000021  00000+0  80971-4 0  9993
2 32953  82.4994 239.5159 0020131  95.9766 264.3612 12.43107826627220
FENGYUN 3A              
1 32958U 08026A   22079.18114896  .00000036  00000+0  37551-4 0  9994
2 32958  98.4920  45.5125 0007684 283.8103  76.2219 14.18695346715673
PRISM (HITOMI)          
1 33493U 09002B   22078.91711311  .00002726  00000+0  23114-3 0  9996
2 33493  98.2261  60.4756 0016005  91.2179 269.0876 14.98792773715560
STARS (KUKAI)           
1 33498U 09002G   22078.65978990  .00000903  00000+0  12749-3 0  9997
2 33498  98.1805 329.1033 0010720 174.0481 186.0859 14.79694006708150
KKS-1 (KISEKI)          
1 33499U 09002H   22078.88952200  .00000446  00000+0  72828-4 0  9996
2 33499  98.2317 319.3920 0007875 237.8139 122.2306 14.75854599707037
NOAA 19                 
1 33591U 09005A   22079.17081406  .00000083  00000+0  70042-4 0  9999
2 33591  99.1597 111.3855 0014846  80.0974 280.1872 14.12539159675846
SWISSCUBE               
1 35932U 09051B   22078.53748420  .00000442  00000+0  10976-3 0  9994
2 35932  98.5802 291.9128 0007003 331.9536  28.1283 14.56723332663003
BEESAT-1                
1 35933U 09051C   22078.56276919  .00000380  00000+0  95860-4 0  9994
2 35933  98.5747 293.6262 0005473 348.2623  11.8446 14.56757767663163
ITUPSAT1                
1 35935U 09051E   22078.59429220  .00000346  00000+0  89920-4 0  9996
2 35935  98.5849 293.7370 0007795 347.3307  12.7693 14.55877610662800
XIWANG-1 (HOPE-1)       
1 36122U 09072B   22078.89116128 -.00000029  00000+0  36601-4 0  9998
2 36122 100.1732  53.5782 0007392 182.4266 177.6812 13.16366667589021
CARTOSAT-2B             
1 36795U 10035A   22079.13292082  .00000477  00000+0  72195-4 0  9991
2 36795  97.9719 140.4229 0013878 167.1901 192.9674 14.78633503630869
TISAT 1                 
1 36799U 10035E   22078.82456269  .00001445  00000+0  14709-3 0  9991
2 36799  98.1924 285.7177 0012674  35.1738 325.0314 14.92366171634396
FENGYUN 3B              
1 37214U 10059A   22079.06771740 -.00000038  00000+0  45786-5 0  9990
2 37214  99.0933  83.4484 0021139 246.5886 113.3074 14.14246075588327
JUGNU                   
1 37839U 11058B   22079.14904683  .00000404  00000+0  72943-4 0  9996
2 37839  19.9627 357.1273 0018842 251.7234 251.3715 14.12757711539604
SRMSAT                  
1 37841U 11058D   22078.66467728  .00000352  00000+0  48421-4 0  9995
2 37841  19.9723  77.6456 0012089  77.7802  78.9804 14.10732071538549
M-CUBED & EXP-1 PRIME   
1 37855U 11061F   22079.18415236  .00005098  00000+0  23841-3 0  9999
2 37855 101.7074 151.3290 0159541 329.3323  29.8639 15.10092005568224
HORYU-2                 
1 38340U 12025D   22078.82243083  .00000858  00000+0  13114-3 0  9990
2 38340  98.2002 155.8816 0012191 150.1549 210.0357 14.76355706519012
METOP-B                 
1 38771U 12049A   22078.82150260  .00000033  00000+0  34972-4 0  9999
2 38771  98.6756 139.8708 0000374  36.0957  78.5205 14.21502301493001
SARAL                   
1 39086U 13009A   22078.88635671  .00000028  00000+0  26735-4 0  9998
2 39086  98.5480 265.8474 0001691 126.7796 233.3543 14.32059825473661
AAUSAT 3                
1 39087U 13009B   22079.09475879  .00000471  00000+0  17627-3 0  9996
2 39087  98.4062 280.8725 0012259 169.1258 191.0188 14.36078980474752
STRAND-1                
1 39090U 13009E   22078.78747447  .00000174  00000+0  75759-4 0  9999
2 39090  98.4107 279.2304 0009212 171.4120 188.7225 14.35256482474535
BRITE-AUSTRIA           
1 39091U 13009F   22079.04982108  .00000101  00000+0  50133-4 0  9994
2 39091  98.4117 278.6441 0010462 178.2468 181.8756 14.35238598474611
UNIBRITE                
1 39092U 13009G   22078.78455726  .00000073  00000+0  40588-4 0  9997
2 39092  98.4149 278.1322 0009468 173.5278 186.6031 14.35109965474525
SOMP                    
1 39134U 13015E   22079.17458253  .00009913  00000+0  38920-3 0  9991
2 39134  64.8650 354.2829 0031386 294.3634  65.4221 15.25732363493605
BEESAT-3                
1 39135U 13015F   22079.21049168  .00008592  00000+0  38011-3 0  9991
2 39135  64.8689  28.2511 0033024 303.7038  56.0942 15.21771011492950
BEESAT-2                
1 39136U 13015G   22079.20522764  .00007658  00000+0  35262-3 0  9996
2 39136  64.8771  35.9114 0010849 283.5290  76.4629 15.20924679492814
NEE-01 PEGASO           
1 39151U 13018B   22078.97890811  .00000908  00000+0  12489-3 0  9997
2 39151  97.9834 185.0138 0016970 181.0630 179.0549 14.80657893480445
CUBEBUG-1 (CAPITAN BETO)
1 39153U 13018D   22079.22198676  .00001128  00000+0  15111-3 0  9998
2 39153  98.0030 189.3549 0016939 175.2423 184.8953 14.81301859480622
